ONEWEB-0427             
1 50499U 21132AG  26023.65537378  .00000162  00000+0  37712-3 0  9994
2 50499  87.9195   4.1239 0002026  87.6706 272.4659 13.18688131202561
ONEWEB-0429             
1 50500U 21132AH  26023.94568823  .00000043  00000+0  77197-4 0  9998
2 50500  87.9198   4.0988 0001644  83.1269 277.0050 13.18686671202571
ONEWEB-0430             
1 50501U 21132AJ  26023.63064585  .00000042  00000+0  74557-4 0  9997
2 50501  87.9200   4.1582 0001627  91.6203 268.5116 13.18686142202571
ONEWEB-0432             
1 50502U 21132AK  26024.19394182  .00000058  00000+0  11317-3 0  9990
2 50502  87.9194   4.0155 0002488 102.4621 257.6790 13.18680580202601
ONEWEB-0440             
1 50503U 21132AL  26024.18157366  .00000030  00000+0  42881-4 0  9992
2 50503  87.9198   4.0379 0001696  71.4792 288.6524 13.18686827202595
ONEWEB-0450             
1 50504U 21132AM  26024.17510836  .00000007  00000+0 -13935-4 0  9990
2 50504  87.9191   4.0587 0001510  85.2952 274.8352 13.18687205202627
ONEWEB-0410             
1 51622U 22012A   26023.78670204  .00000015  00000+0  63290-5 0  9990
2 51622  87.9094  34.5409 0003218  88.4766 271.6735 13.17648691194688
ONEWEB-0411             
1 51623U 22012B   26024.15546976  .00000105  00000+0  26334-3 0  9997
2 51623  87.8767  64.9719 0001640 115.3886 244.7411 13.10376493190427
